start=new Date('2022-02-23T00:00:00.000Z').valueOf();
sats=[{"TIME_SYSTEM":"UTC","FILE":"3314780","GP_ID":"196686463","ECCENTRICITY":"0.00014350","ARG_OF_PERICENTER":"50.9189","LAUNCH_DATE":"2021-12-18","REV_AT_EPOCH":"368","EPHEMERIS_TYPE":"0","SITE":"AFWTR","ELEMENT_SET_NO":"999","MEAN_MOTION_DOT":"-0.00654194","COUNTRY_CODE":"US","TLE_LINE1":"1 50183U 21125AD  22053.91667824 -.00654194  00000-0 -11988-1 0  9992","MEAN_ANOMALY":"243.8253","OBJECT_NAME":"STARLINK-3281","OBJECT_ID":"2021-125AD","INCLINATION":"53.2176","SEMIMAJOR_AXIS":"6791.698","TLE_LINE2":"2 50183  53.2176  38.3917 0001435  50.9189 243.8253 15.51083574  3682","BSTAR":"-0.01198800000000","CENTER_NAME":"EARTH","OBJECT_TYPE":"PAYLOAD","MEAN_MOTION_DDOT":"0.0000000000000","CLASSIFICATION_TYPE":"U","DECAY_DATE":null,"RCS_SIZE":"LARGE","MEAN_ELEMENT_THEORY":"SGP4","NORAD_CAT_ID":"50183","RA_OF_ASC_NODE":"38.3917","PERIOD":"92.838","EPOCH":"2022-02-22T22:00:00.999936","APOAPSIS":"414.538","PERIAPSIS":"412.589","MEAN_MOTION":"15.51083574","REF_FRAME":"TEME"},{"NORAD_CAT_ID":"50185","MEAN_ELEMENT_THEORY":"SGP4","RCS_SIZE":"LARGE","DECAY_DATE":null,"CLASSIFICATION_TYPE":"U","MEAN_MOTION_DDOT":"0.0000000000000","OBJECT_TYPE":"PAYLOAD","REF_FRAME":"TEME","MEAN_MOTION":"15.50853456","PERIAPSIS":"413.222","APOAPSIS":"415.248","EPOCH":"2022-02-22T22:00:00.999936","RA_OF_ASC_NODE":"38.3950","PERIOD":"92.852","LAUNCH_DATE":"2021-12-18","REV_AT_EPOCH":"368","ARG_OF_PERICENTER":"49.1767","ECCENTRICITY":"0.00014920","GP_ID":"196686714","FILE":"3314780","TIME_SYSTEM":"UTC","CENTER_NAME":"EARTH","BSTAR":"-0.01209100000000","TLE_LINE2":"2 50185  53.2176  38.3950 0001492  49.1767 230.5208 15.50853456  3682","SEMIMAJOR_AXIS":"6792.370","OBJECT_ID":"2021-125AF","INCLINATION":"53.2176","OBJECT_NAME":"STARLINK-3279","TLE_LINE1":"1 50185U 21125AF  22053.91667824 -.00654383  00000-0 -12091-1 0  9990","MEAN_ANOMALY":"230.5208","COUNTRY_CODE":"US","SITE":"AFWTR","ELEMENT_SET_NO":"999","MEAN_MOTION_DOT":"-0.00654383","EPHEMERIS_TYPE":"0"},{"MEAN_MOTION_DDOT":"0.0000000000000","CLASSIFICATION_TYPE":"U","OBJECT_TYPE":"PAYLOAD","NORAD_CAT_ID":"50186","RCS_SIZE":"LARGE","MEAN_ELEMENT_THEORY":"SGP4","DECAY_DATE":null,"APOAPSIS":"507.041","EPOCH":"2022-02-22T22:00:00.999936","RA_OF_ASC_NODE":"44.4058","PERIOD":"94.740","REF_FRAME":"TEME","MEAN_MOTION":"15.19956475","PERIAPSIS":"504.907","ECCENTRICITY":"0.00015500","GP_ID":"196685462","FILE":"3314780","TIME_SYSTEM":"UTC","REV_AT_EPOCH":"364","LAUNCH_DATE":"2021-12-18","ARG_OF_PERICENTER":"55.6713","MEAN_ANOMALY":"102.6135","TLE_LINE1":"1 50186U 21125AG  22053.91667824 -.00666632  00000-0 -32657-1 0  9991","OBJECT_NAME":"STARLINK-3274","COUNTRY_CODE":"US","EPHEMERIS_TYPE":"0","SITE":"AFWTR","MEAN_MOTION_DOT":"-0.00666632","ELEMENT_SET_NO":"999","BSTAR":"-0.03265700000000","CENTER_NAME":"EARTH","SEMIMAJOR_AXIS":"6884.109","TLE_LINE2":"2 50186  53.2174  44.4058 0001550  55.6713 102.6135 15.19956475  3640","OBJECT_ID":"2021-125AG","INCLINATION":"53.2174"},{"APOAPSIS":"351.925","PERIOD":"91.533","RA_OF_ASC_NODE":"37.0195","EPOCH":"2022-02-22T22:00:00.999936","REF_FRAME":"TEME","PERIAPSIS":"347.572","MEAN_MOTION":"15.73204035","CLASSIFICATION_TYPE":"U","MEAN_MOTION_DDOT":"0.0000000000000","OBJECT_TYPE":"PAYLOAD","NORAD_CAT_ID":"50187","DECAY_DATE":null,"MEAN_ELEMENT_THEORY":"SGP4","RCS_SIZE":"LARGE","COUNTRY_CODE":"US","OBJECT_NAME":"STARLINK-3272","MEAN_ANOMALY":"201.3316","TLE_LINE1":"1 50187U 21125AH  22053.91667824  .00051554  00000-0  36936-3 0  9997","SITE":"AFWTR","MEAN_MOTION_DOT":"0.00051554","ELEMENT_SET_NO":"999","EPHEMERIS_TYPE":"0","TLE_LINE2":"2 50187  53.2156  37.0195 0003235  11.4810 201.3316 15.73204035  3681","SEMIMAJOR_AXIS":"6727.884","CENTER_NAME":"EARTH","BSTAR":"0.00036936000000","INCLINATION":"53.2156","OBJECT_ID":"2021-125AH","GP_ID":"196685712","ECCENTRICITY":"0.00032350","TIME_SYSTEM":"UTC","FILE":"3314780","LAUNCH_DATE":"2021-12-18","REV_AT_EPOCH":"368","ARG_OF_PERICENTER":"11.4810"},{"APOAPSIS":"351.938","PERIOD":"91.531","RA_OF_ASC_NODE":"37.0164","EPOCH":"2022-02-22T22:00:00.999936","REF_FRAME":"TEME","PERIAPSIS":"347.359","MEAN_MOTION":"15.73239215","CLASSIFICATION_TYPE":"U","MEAN_MOTION_DDOT":"0.0000000000000","OBJECT_TYPE":"PAYLOAD","NORAD_CAT_ID":"50188","DECAY_DATE":null,"MEAN_ELEMENT_THEORY":"SGP4","RCS_SIZE":"LARGE","COUNTRY_CODE":"US","OBJECT_NAME":"STARLINK-3275","TLE_LINE1":"1 50188U 21125AJ  22053.91667824  .00051297  00000-0  36699-3 0  9998","MEAN_ANOMALY":"199.1001","MEAN_MOTION_DOT":"0.00051297","SITE":"AFWTR","ELEMENT_SET_NO":"999","EPHEMERIS_TYPE":"0","TLE_LINE2":"2 50188  53.2153  37.0164 0003403  12.6240 199.1001 15.73239215  3685","SEMIMAJOR_AXIS":"6727.783","CENTER_NAME":"EARTH","BSTAR":"0.00036699000000","OBJECT_ID":"2021-125AJ","INCLINATION":"53.2153","GP_ID":"196686964","ECCENTRICITY":"0.00034030","TIME_SYSTEM":"UTC","FILE":"3314780","LAUNCH_DATE":"2021-12-18","REV_AT_EPOCH":"368","ARG_OF_PERICENTER":"12.6240"},{"DECAY_DATE":null,"MEAN_ELEMENT_THEORY":"SGP4","RCS_SIZE":"LARGE","NORAD_CAT_ID":"50189","OBJECT_TYPE":"PAYLOAD","CLASSIFICATION_TYPE":"U","MEAN_MOTION_DDOT":"0.0000000000000","PERIAPSIS":"417.972","MEAN_MOTION":"15.49256219","REF_FRAME":"TEME","PERIOD":"92.948","RA_OF_ASC_NODE":"38.3875","EPOCH":"2022-02-22T22:00:00.999936","APOAPSIS":"419.833","ARG_OF_PERICENTER":"64.5578","LAUNCH_DATE":"2021-12-18","REV_AT_EPOCH":"368","TIME_SYSTEM":"UTC","FILE":"3314780","GP_ID":"196687215","ECCENTRICITY":"0.00013690","OBJECT_ID":"2021-125AK","INCLINATION":"53.2173","TLE_LINE2":"2 50189  53.2173  38.3875 0001369  64.5578 124.6152 15.49256219  3686","SEMIMAJOR_AXIS":"6797.038","CENTER_NAME":"EARTH","BSTAR":"-0.01284000000000","SITE":"AFWTR","MEAN_MOTION_DOT":"-0.00656292","ELEMENT_SET_NO":"999","EPHEMERIS_TYPE":"0","COUNTRY_CODE":"US","OBJECT_NAME":"STARLINK-3276","TLE_LINE1":"1 50189U 21125AK  22053.91667824 -.00656292  00000-0 -12840-1 0  9997","MEAN_ANOMALY":"124.6152"},{"EPHEMERIS_TYPE":"0","MEAN_MOTION_DOT":"-0.00066042","SITE":"AFWTR","ELEMENT_SET_NO":"999","TLE_LINE1":"1 50190U 21125AL  22053.91667824 -.00066042  00000-0 -46781-3 0  9990","MEAN_ANOMALY":"202.6779","OBJECT_NAME":"STARLINK-3268","COUNTRY_CODE":"US","INCLINATION":"53.2167","OBJECT_ID":"2021-125AL","BSTAR":"-0.00046781000000","CENTER_NAME":"EARTH","SEMIMAJOR_AXIS":"6727.642","TLE_LINE2":"2 50190  53.2167  37.0088 0003703  12.8990 202.6779 15.73288703  3683","TIME_SYSTEM":"UTC","FILE":"3314780","ECCENTRICITY":"0.00037030","GP_ID":"196685963","ARG_OF_PERICENTER":"12.8990","REV_AT_EPOCH":"368","LAUNCH_DATE":"2021-12-18","EPOCH":"2022-02-22T22:00:00.999936","RA_OF_ASC_NODE":"37.0088","PERIOD":"91.528","APOAPSIS":"351.999","MEAN_MOTION":"15.73288703","PERIAPSIS":"347.016","REF_FRAME":"TEME","OBJECT_TYPE":"PAYLOAD","MEAN_MOTION_DDOT":"0.0000000000000","CLASSIFICATION_TYPE":"U","RCS_SIZE":"LARGE","MEAN_ELEMENT_THEORY":"SGP4","DECAY_DATE":null,"NORAD_CAT_ID":"50190"},{"ARG_OF_PERICENTER":"39.2117","REV_AT_EPOCH":"363","LAUNCH_DATE":"2021-12-18","FILE":"3314780","TIME_SYSTEM":"UTC","ECCENTRICITY":"0.00017120","GP_ID":"196686213","OBJECT_ID":"2021-125AM","INCLINATION":"53.2172","CENTER_NAME":"EARTH","BSTAR":"-0.03328100000000","TLE_LINE2":"2 50191  53.2172  44.4037 0001712  39.2117   2.4813 15.19103014  3639","SEMIMAJOR_AXIS":"6886.687","ELEMENT_SET_NO":"999","SITE":"AFWTR","MEAN_MOTION_DOT":"-0.00662918","EPHEMERIS_TYPE":"0","OBJECT_NAME":"STARLINK-3273","MEAN_ANOMALY":"2.4813","TLE_LINE1":"1 50191U 21125AM  22053.91667824 -.00662918  00000-0 -33281-1 0  9994","COUNTRY_CODE":"US","MEAN_ELEMENT_THEORY":"SGP4","RCS_SIZE":"LARGE","DECAY_DATE":null,"NORAD_CAT_ID":"50191","OBJECT_TYPE":"PAYLOAD","CLASSIFICATION_TYPE":"U","MEAN_MOTION_DDOT":"0.0000000000000","MEAN_MOTION":"15.19103014","PERIAPSIS":"507.373","REF_FRAME":"TEME","EPOCH":"2022-02-22T22:00:00.999936","PERIOD":"94.793","RA_OF_ASC_NODE":"44.4037","APOAPSIS":"509.731"},{"EPHEMERIS_TYPE":"0","MEAN_MOTION_DOT":"0.00053325","SITE":"AFWTR","ELEMENT_SET_NO":"999","COUNTRY_CODE":"US","MEAN_ANOMALY":"207.3899","TLE_LINE1":"1 50192U 21125AN  22053.91667824  .00053325  00000-0  38128-3 0  9996","OBJECT_NAME":"STARLINK-3259","OBJECT_ID":"2021-125AN","INCLINATION":"53.2165","SEMIMAJOR_AXIS":"6727.792","TLE_LINE2":"2 50192  53.2165  37.0061 0003505   8.9782 207.3899 15.73236036  3686","BSTAR":"0.00038128000000","CENTER_NAME":"EARTH","TIME_SYSTEM":"UTC","FILE":"3314780","GP_ID":"196686464","ECCENTRICITY":"0.00035050","ARG_OF_PERICENTER":"8.9782","LAUNCH_DATE":"2021-12-18","REV_AT_EPOCH":"368","RA_OF_ASC_NODE":"37.0061","PERIOD":"91.531","EPOCH":"2022-02-22T22:00:00.999936","APOAPSIS":"352.016","PERIAPSIS":"347.299","MEAN_MOTION":"15.73236036","REF_FRAME":"TEME","OBJECT_TYPE":"PAYLOAD","MEAN_MOTION_DDOT":"0.0000000000000","CLASSIFICATION_TYPE":"U","DECAY_DATE":null,"RCS_SIZE":"LARGE","MEAN_ELEMENT_THEORY":"SGP4","NORAD_CAT_ID":"50192"},{"GP_ID":"196686715","ECCENTRICITY":"0.00032300","TIME_SYSTEM":"UTC","FILE":"3314780","REV_AT_EPOCH":"368","LAUNCH_DATE":"2021-12-18","ARG_OF_PERICENTER":"11.3837","COUNTRY_CODE":"US","OBJECT_NAME":"STARLINK-3261","MEAN_ANOMALY":"202.2167","TLE_LINE1":"1 50193U 21125AP  22053.91667824  .00061893  00000-0  44129-3 0  9994","SITE":"AFWTR","ELEMENT_SET_NO":"999","MEAN_MOTION_DOT":"0.00061893","EPHEMERIS_TYPE":"0","TLE_LINE2":"2 50193  53.2164  37.0110 0003230  11.3837 202.2167 15.73242165  3687","SEMIMAJOR_AXIS":"6727.775","CENTER_NAME":"EARTH","BSTAR":"0.00044129000000","INCLINATION":"53.2164","OBJECT_ID":"2021-125AP","CLASSIFICATION_TYPE":"U","MEAN_MOTION_DDOT":"0.0000000000000","OBJECT_TYPE":"PAYLOAD","NORAD_CAT_ID":"50193","DECAY_DATE":null,"MEAN_ELEMENT_THEORY":"SGP4","RCS_SIZE":"LARGE","APOAPSIS":"351.813","RA_OF_ASC_NODE":"37.0110","PERIOD":"91.531","EPOCH":"2022-02-22T22:00:00.999936","REF_FRAME":"TEME","PERIAPSIS":"347.467","MEAN_MOTION":"15.73242165"}];
